[{"OBJECT_NAME":"JILIN-1 KUANFU-01B","OBJECT_ID":"2021-061A","EPOCH":"2026-03-09T22:54:34.499808","MEAN_MOTION":15.09454544,"ECCENTRICITY":0.00089006,"INCLINATION":97.5272,"RA_OF_ASC_NODE":146.9765,"ARG_OF_PERICENTER":57.5197,"MEAN_ANOMALY":302.6891,"EPHEMERIS_TYPE":0,"CLASSIFICATION_TYPE":"U","NORAD_CAT_ID":49003,"ELEMENT_SET_NO":999,"REV_AT_EPOCH":25837,"BSTAR":0.00023291265,"MEAN_MOTION_DOT":3.668e-5,"MEAN_MOTION_DDOT":0},{"OBJECT_NAME":"STARLINK-5118","OBJECT_ID":"2022-125AD","EPOCH":"2026-03-09T16:39:19.700064","MEAN_MOTION":15.08841557,"ECCENTRICITY":0.00011815,"INCLINATION":53.2175,"RA_OF_ASC_NODE":204.0339,"ARG_OF_PERICENTER":81.8503,"MEAN_ANOMALY":278.2624,"EPHEMERIS_TYPE":0,"CLASSIFICATION_TYPE":"U","NORAD_CAT_ID":53991,"ELEMENT_SET_NO":999,"REV_AT_EPOCH":18959,"BSTAR":3.2190284e-5,"MEAN_MOTION_DOT":2.25e-6,"MEAN_MOTION_DDOT":0}]
